[{"OBJECT_NAME":"STARLINK-3723","OBJECT_ID":"2022-029BC","EPOCH":"2026-03-09T06:18:40.945824","MEAN_MOTION":15.08827538,"ECCENTRICITY":0.00012964,"INCLINATION":53.2178,"RA_OF_ASC_NODE":71.0337,"ARG_OF_PERICENTER":88.1691,"MEAN_ANOMALY":271.945,"EPHEMERIS_TYPE":0,"CLASSIFICATION_TYPE":"U","NORAD_CAT_ID":52138,"ELEMENT_SET_NO":999,"REV_AT_EPOCH":22087,"BSTAR":0.00012625708,"MEAN_MOTION_DOT":1.721e-5,"MEAN_MOTION_DDOT":0},{"OBJECT_NAME":"FENGYUN 1C DEB","OBJECT_ID":"1999-025DZE","EPOCH":"2026-02-28T06:22:54.338880","MEAN_MOTION":15.08907087,"ECCENTRICITY":0.00232464,"INCLINATION":99.4552,"RA_OF_ASC_NODE":173.2368,"ARG_OF_PERICENTER":218.3208,"MEAN_ANOMALY":141.6363,"EPHEMERIS_TYPE":0,"CLASSIFICATION_TYPE":"U","NORAD_CAT_ID":36684,"ELEMENT_SET_NO":999,"REV_AT_EPOCH":67065,"BSTAR":0.0055309563,"MEAN_MOTION_DOT":0.00088715,"MEAN_MOTION_DDOT":0}]
